{
  "links" : {
    "next" : "https://api.nasa.gov/neo/rest/v1/feed?start_date=2006-07-23&end_date=2006-07-23&detailed=true&api_key=t0TVs3DtDT2H8Oy2Zy8m2eVrNsAVKAexjcZXUckd",
    "prev" : "https://api.nasa.gov/neo/rest/v1/feed?start_date=2006-07-21&end_date=2006-07-21&detailed=true&api_key=t0TVs3DtDT2H8Oy2Zy8m2eVrNsAVKAexjcZXUckd",
    "self" : "https://api.nasa.gov/neo/rest/v1/feed?start_date=2006-07-22&end_date=2006-07-22&detailed=true&api_key=t0TVs3DtDT2H8Oy2Zy8m2eVrNsAVKAexjcZXUckd"
  },
  "element_count" : 5,
  "near_earth_objects" : {
    "2006-07-22" : [ {
      "links" : {
        "self" : "https://api.nasa.gov/neo/rest/v1/neo/2217013?api_key=t0TVs3DtDT2H8Oy2Zy8m2eVrNsAVKAexjcZXUckd"
      },
      "neo_reference_id" : "2217013",
      "name" : "217013 (2001 AA50)",
      "nasa_jpl_url" : "http://ssd.jpl.nasa.gov/sbdb.cgi?sstr=2217013",
      "absolute_magnitude_h" : 18.7,
      "estimated_diameter" : {
        "kilometers" : {
          "estimated_diameter_min" : 0.4836764882,
          "estimated_diameter_max" : 1.0815335068
        },
        "meters" : {
          "estimated_diameter_min" : 483.6764882185,
          "estimated_diameter_max" : 1081.533506775
        },
        "miles" : {
          "estimated_diameter_min" : 0.3005425432,
          "estimated_diameter_max" : 0.6720335566
        },
        "feet" : {
          "estimated_diameter_min" : 1586.8651696069,
          "estimated_diameter_max" : 3548.3383903678
        }
      },
      "is_potentially_hazardous_asteroid" : false,
      "close_approach_data" : [ {
        "close_approach_date" : "2006-07-22",
        "epoch_date_close_approach" : 1153551600000,
        "relative_velocity" : {
          "kilometers_per_second" : "26.0872587764",
          "kilometers_per_hour" : "93914.1315951998",
          "miles_per_hour" : "58354.5891570285"
        },
        "miss_distance" : {
          "astronomical" : "0.3940039444",
          "lunar" : "153.2675323486",
          "kilometers" : "58942152",
          "miles" : "36624956"
        },
        "orbiting_body" : "Earth"
      } ],
      "orbital_data" : {
        "orbit_id" : "87",
        "orbit_determination_date" : "2017-04-06 09:25:19",
        "orbit_uncertainty" : "0",
        "minimum_orbit_intersection" : ".131875",
        "jupiter_tisserand_invariant" : "4.652",
        "epoch_osculation" : "2458000.5",
        "eccentricity" : ".1979580957915888",
        "semi_major_axis" : "1.32072380547989",
        "inclination" : "43.87858409562145",
        "ascending_node_longitude" : "306.2546641017849",
        "orbital_period" : "554.3913374936111",
        "perihelion_distance" : "1.05927583588047",
        "perihelion_argument" : "58.62233417177695",
        "aphelion_distance" : "1.58217177507931",
        "perihelion_time" : "2457864.418091220195",
        "mean_anomaly" : "88.36625655481927",
        "mean_motion" : ".6493607956205641",
        "equinox" : "J2000"
      }
    }, {
      "links" : {
        "self" : "https://api.nasa.gov/neo/rest/v1/neo/3137846?api_key=t0TVs3DtDT2H8Oy2Zy8m2eVrNsAVKAexjcZXUckd"
      },
      "neo_reference_id" : "3137846",
      "name" : "(2002 TR67)",
      "nasa_jpl_url" : "http://ssd.jpl.nasa.gov/sbdb.cgi?sstr=3137846",
      "absolute_magnitude_h" : 22.7,
      "estimated_diameter" : {
        "kilometers" : {
          "estimated_diameter_min" : 0.0766575574,
          "estimated_diameter_max" : 0.1714115092
        },
        "meters" : {
          "estimated_diameter_min" : 76.6575573531,
          "estimated_diameter_max" : 171.4115092306
        },
        "miles" : {
          "estimated_diameter_min" : 0.0476327831,
          "estimated_diameter_max" : 0.1065101409
        },
        "feet" : {
          "estimated_diameter_min" : 251.5011804664,
          "estimated_diameter_max" : 562.3737359442
        }
      },
      "is_potentially_hazardous_asteroid" : false,
      "close_approach_data" : [ {
        "close_approach_date" : "2006-07-22",
        "epoch_date_close_approach" : 1153551600000,
        "relative_velocity" : {
          "kilometers_per_second" : "15.0881967344",
          "kilometers_per_hour" : "54317.5082437288",
          "miles_per_hour" : "33750.7872751102"
        },
        "miss_distance" : {
          "astronomical" : "0.4024111484",
          "lunar" : "156.5379486084",
          "kilometers" : "60199852",
          "miles" : "37406456"
        },
        "orbiting_body" : "Earth"
      } ],
      "orbital_data" : {
        "orbit_id" : "10",
        "orbit_determination_date" : "2017-04-06 09:14:45",
        "orbit_uncertainty" : "7",
        "minimum_orbit_intersection" : ".0398058",
        "jupiter_tisserand_invariant" : "4.327",
        "epoch_osculation" : "2458000.5",
        "eccentricity" : ".3416996665845315",
        "semi_major_axis" : "1.568384816047807",
        "inclination" : "11.97149877788956",
        "ascending_node_longitude" : "180.5961565171704",
        "orbital_period" : "717.4264275415784",
        "perihelion_distance" : "1.03246824732803",
        "perihelion_argument" : "161.2000407923363",
        "aphelion_distance" : "2.104301384767585",
        "perihelion_time" : "2458263.629488533807",
        "mean_anomaly" : "227.9633029455405",
        "mean_motion" : ".5017936142018357",
        "equinox" : "J2000"
      }
    }, {
      "links" : {
        "self" : "https://api.nasa.gov/neo/rest/v1/neo/3337560?api_key=t0TVs3DtDT2H8Oy2Zy8m2eVrNsAVKAexjcZXUckd"
      },
      "neo_reference_id" : "3337560",
      "name" : "(2006 OM1)",
      "nasa_jpl_url" : "http://ssd.jpl.nasa.gov/sbdb.cgi?sstr=3337560",
      "absolute_magnitude_h" : 21.6,
      "estimated_diameter" : {
        "kilometers" : {
          "estimated_diameter_min" : 0.1272198785,
          "estimated_diameter_max" : 0.2844722965
        },
        "meters" : {
          "estimated_diameter_min" : 127.2198785394,
          "estimated_diameter_max" : 284.4722965033
        },
        "miles" : {
          "estimated_diameter_min" : 0.0790507431,
          "estimated_diameter_max" : 0.1767628354
        },
        "feet" : {
          "estimated_diameter_min" : 417.3880663071,
          "estimated_diameter_max" : 933.3080892598
        }
      },
      "is_potentially_hazardous_asteroid" : false,
      "close_approach_data" : [ {
        "close_approach_date" : "2006-07-22",
        "epoch_date_close_approach" : 1153551600000,
        "relative_velocity" : {
          "kilometers_per_second" : "18.4763713802",
          "kilometers_per_hour" : "66514.9369687387",
          "miles_per_hour" : "41329.795140381"
        },
        "miss_distance" : {
          "astronomical" : "0.1089602693",
          "lunar" : "42.3855438232",
          "kilometers" : "16300225",
          "miles" : "10128490"
        },
        "orbiting_body" : "Earth"
      } ],
      "orbital_data" : {
        "orbit_id" : "10",
        "orbit_determination_date" : "2017-04-06 09:08:24",
        "orbit_uncertainty" : "6",
        "minimum_orbit_intersection" : ".105376",
        "jupiter_tisserand_invariant" : "3.881",
        "epoch_osculation" : "2458000.5",
        "eccentricity" : ".3873408912990201",
        "semi_major_axis" : "1.740266494263014",
        "inclination" : "33.29456783792689",
        "ascending_node_longitude" : "303.4302787402191",
        "orbital_period" : "838.5366805315749",
        "perihelion_distance" : "1.066190119277357",
        "perihelion_argument" : "323.96804467795",
        "aphelion_distance" : "2.414342869248671",
        "perihelion_time" : "2458099.275212952168",
        "mean_anomaly" : "317.5938924457799",
        "mean_motion" : ".4293193230041942",
        "equinox" : "J2000"
      }
    } ]
  }
}